{
  "type": "FeatureCollection",
  "features": [
    {
      "type": "Feature",
      "properties": {
        "norad_id": 33376,
        "name": "GALAXY 19 (G-19)",
        "group": "intelsat",
        "lat": -0.02079847888864804,
        "lon": -147.29282264014324,
        "alt_km": 35777.17106395905,
        "timestamp": "2025-12-03T15:48:02.769062+00:00",
        "meta_object_name": "GALAXY 19 (G-19)",
        "meta_object_id": "2008-045A",
        "meta_epoch": "2025-12-03T04:00:38.642688",
        "meta_mean_motion": 1.00270857,
        "meta_eccentricity": 0.00034382,
        "meta_inclination": 0.0173,
        "meta_ra_of_asc_node": 17.5292,
        "meta_arg_of_pericenter": 246.195,
        "meta_mean_anomaly": 131.7053,
        "meta_ephemeris_type": 0,
        "meta_classification_type": "U",
        "meta_norad_cat_id": 33376,
        "meta_element_set_no": 999,
        "meta_rev_at_epoch": 6293,
        "meta_bstar": 0,
        "meta_mean_motion_dot": -1.2e-06,
        "meta_mean_motion_ddot": 0,
        "tle_line1": "1 33376U 08045A   25337.16711392 -.00000120  00000+0  00000+0 0  9991",
        "tle_line2": "2 33376   0.0173  17.5292 0003438 246.1950 131.7053  1.00270857 62936"
      },
      "geometry": {
        "type": "Point",
        "coordinates": [
          -147.29282264014324,
          -0.02079847888864804
        ]
      }
    },
    {
      "type": "Feature",
      "properties": {
        "norad_id": 35493,
        "name": "FM-5",
        "group": "intelsat",
        "lat": -0.04207587976654943,
        "lon": -136.395241981108,
        "alt_km": 35784.26970696712,
        "timestamp": "2025-12-03T15:48:02.769073+00:00",
        "meta_object_name": "FM-5",
        "meta_object_id": "2009-034A",
        "meta_epoch": "2025-12-03T06:40:38.582976",
        "meta_mean_motion": 1.00269779,
        "meta_eccentricity": 0.0001171,
        "meta_inclination": 0.0231,
        "meta_ra_of_asc_node": 284.1351,
        "meta_arg_of_pericenter": 238.7271,
        "meta_mean_anomaly": 283.5331,
        "meta_ephemeris_type": 0,
        "meta_classification_type": "U",
        "meta_norad_cat_id": 35493,
        "meta_element_set_no": 999,
        "meta_rev_at_epoch": 4468,
        "meta_bstar": 0,
        "meta_mean_motion_dot": -1.81e-06,
        "meta_mean_motion_ddot": 0,
        "tle_line1": "1 35493U 09034A   25337.27822434 -.00000181  00000+0  00000+0 0  9991",
        "tle_line2": "2 35493   0.0231 284.1351 0001171 238.7271 283.5331  1.00269779 44684"
      },
      "geometry": {
        "type": "Point",
        "coordinates": [
          -136.395241981108,
          -0.04207587976654943
        ]
      }
    },
    {
      "type": "Feature",
      "properties": {
        "norad_id": 36097,
        "name": "INTELSAT 14 (IS-14)",
        "group": "intelsat",
        "lat": -0.028495346086356187,
        "lon": -95.25765007427658,
        "alt_km": 35775.220806256955,
        "timestamp": "2025-12-03T15:48:02.769084+00:00",
        "meta_object_name": "INTELSAT 14 (IS-14)",
        "meta_object_id": "2009-064A",
        "meta_epoch": "2025-12-03T06:41:34.941696",
        "meta_mean_motion": 1.00271415,
        "meta_eccentricity": 0.00026432,
        "meta_inclination": 0.0163,
        "meta_ra_of_asc_node": 303.4832,
        "meta_arg_of_pericenter": 310.7082,
        "meta_mean_anomaly": 233.5808,
        "meta_ephemeris_type": 0,
        "meta_classification_type": "U",
        "meta_norad_cat_id": 36097,
        "meta_element_set_no": 999,
        "meta_rev_at_epoch": 5864,
        "meta_bstar": 0,
        "meta_mean_motion_dot": -2.55e-06,
        "meta_mean_motion_ddot": 0,
        "tle_line1": "1 36097U 09064A   25337.27887664 -.00000255  00000+0  00000+0 0  9993",
        "tle_line2": "2 36097   0.0163 303.4832 0002643 310.7082 233.5808  1.00271415 58649"
      },
      "geometry": {
        "type": "Point",
        "coordinates": [
          -95.25765007427658,
          -0.028495346086356187
        ]
      }
    },
    {
      "type": "Feature",
      "properties": {
        "norad_id": 36106,
        "name": "INTELSAT 15 (IS-15)",
        "group": "intelsat",
        "lat": 0.0386121908333289,
        "lon": 34.90991322302322,
        "alt_km": 35794.591052513046,
        "timestamp": "2025-12-03T15:48:02.769094+00:00",
        "meta_object_name": "INTELSAT 15 (IS-15)",
        "meta_object_id": "2009-067A",
        "meta_epoch": "2025-12-03T07:18:31.404096",
        "meta_mean_motion": 1.00270382,
        "meta_eccentricity": 0.00024334,
        "meta_inclination": 0.0154,
        "meta_ra_of_asc_node": 327.2253,
        "meta_arg_of_pericenter": 285.9637,
        "meta_mean_anomaly": 14.0008,
        "meta_ephemeris_type": 0,
        "meta_classification_type": "U",
        "meta_norad_cat_id": 36106,
        "meta_element_set_no": 999,
        "meta_rev_at_epoch": 3926,
        "meta_bstar": 0,
        "meta_mean_motion_dot": -1.66e-06,
        "meta_mean_motion_ddot": 0,
        "tle_line1": "1 36106U 09067A   25337.30453014 -.00000166  00000+0  00000+0 0  9990",
        "tle_line2": "2 36106   0.0154 327.2253 0002433 285.9637  14.0008  1.00270382 39260"
      },
      "geometry": {
        "type": "Point",
        "coordinates": [
          34.90991322302322,
          0.0386121908333289
        ]
      }
    },
    {
      "type": "Feature",
      "properties": {
        "norad_id": 36131,
        "name": "DIRECTV 12",
        "group": "intelsat",
        "lat": -0.007816472490853172,
        "lon": -152.98394102140844,
        "alt_km": 35786.1581214805,
        "timestamp": "2025-12-03T15:48:02.769105+00:00",
        "meta_object_name": "DIRECTV 12",
        "meta_object_id": "2009-075A",
        "meta_epoch": "2025-12-03T06:48:38.769120",
        "meta_mean_motion": 1.00270421,
        "meta_eccentricity": 7.97e-06,
        "meta_inclination": 0.0493,
        "meta_ra_of_asc_node": 130.6298,
        "meta_arg_of_pericenter": 56.8081,
        "meta_mean_anomaly": 244.3852,
        "meta_ephemeris_type": 0,
        "meta_classification_type": "U",
        "meta_norad_cat_id": 36131,
        "meta_element_set_no": 999,
        "meta_rev_at_epoch": 4458,
        "meta_bstar": 0,
        "meta_mean_motion_dot": -8.5e-07,
        "meta_mean_motion_ddot": 0,
        "tle_line1": "1 36131U 09075A   25337.28378205 -.00000085  00000+0  00000+0 0  9992",
        "tle_line2": "2 36131   0.0493 130.6298 0000079  56.8081 244.3852  1.00270421 44581"
      },
      "geometry": {
        "type": "Point",
        "coordinates": [
          -152.98394102140844,
          -0.007816472490853172
        ]
      }
    },
    {
      "type": "Feature",
      "properties": {
        "norad_id": 36397,
        "name": "INTELSAT 16 (IS-16)",
        "group": "intelsat",
        "lat": -0.037052664318455164,
        "lon": -126.4792693925717,
        "alt_km": 35777.26125173027,
        "timestamp": "2025-12-03T15:48:02.769115+00:00",
        "meta_object_name": "INTELSAT 16 (IS-16)",
        "meta_object_id": "2010-006A",
        "meta_epoch": "2025-12-03T06:32:43.291392",
        "meta_mean_motion": 1.00270007,
        "meta_eccentricity": 0.00023753,
        "meta_inclination": 0.0123,
        "meta_ra_of_asc_node": 311.2707,
        "meta_arg_of_pericenter": 303.8806,
        "meta_mean_anomaly": 199.1956,
        "meta_ephemeris_type": 0,
        "meta_classification_type": "U",
        "meta_norad_cat_id": 36397,
        "meta_element_set_no": 999,
        "meta_rev_at_epoch": 5769,
        "meta_bstar": 0,
        "meta_mean_motion_dot": -2.26e-06,
        "meta_mean_motion_ddot": 0,
        "tle_line1": "1 36397U 10006A   25337.27272328 -.00000226  00000+0  00000+0 0  9997",
        "tle_line2": "2 36397   0.0123 311.2707 0002375 303.8806 199.1956  1.00270007 57696"
      },
      "geometry": {
        "type": "Point",
        "coordinates": [
          -126.4792693925717,
          -0.037052664318455164
        ]
      }
    },
    {
      "type": "Feature",
      "properties": {
        "norad_id": 37185,
        "name": "XM-5",
        "group": "intelsat",
        "lat": -0.08045255148643908,
        "lon": -165.44034735493486,
        "alt_km": 35781.50490713707,
        "timestamp": "2025-12-03T15:48:02.769126+00:00",
        "meta_object_name": "XM-5",
        "meta_object_id": "2010-053A",
        "meta_epoch": "2025-12-02T10:37:38.767584",
        "meta_mean_motion": 1.00270481,
        "meta_eccentricity": 0.0001582,
        "meta_inclination": 0.0649,
        "meta_ra_of_asc_node": 272.7549,
        "meta_arg_of_pericenter": 239.5567,
        "meta_mean_anomaly": 323.4678,
        "meta_ephemeris_type": 0,
        "meta_classification_type": "U",
        "meta_norad_cat_id": 37185,
        "meta_element_set_no": 999,
        "meta_rev_at_epoch": 5551,
        "meta_bstar": 0,
        "meta_mean_motion_dot": -2e-08,
        "meta_mean_motion_ddot": 0,
        "tle_line1": "1 37185U 10053A   25336.44280981 -.00000002  00000+0  00000+0 0  9999",
        "tle_line2": "2 37185   0.0649 272.7549 0001582 239.5567 323.4678  1.00270481 55516"
      },
      "geometry": {
        "type": "Point",
        "coordinates": [
          -165.44034735493486,
          -0.08045255148643908
        ]
      }
    }
  ]
}